{
  "type": "FeatureCollection",
  "features": [
    {
      "type": "Feature",
      "properties": {
        "norad_id": 30080,
        "name": "FENGYUN 1C DEB",
        "group": "fengyun-1c-debris",
        "lat": 37.97757169947086,
        "lon": 158.0022414523537,
        "alt_km": 855.9885595045125,
        "timestamp": "2025-12-16T17:51:11.204960+00:00",
        "meta_object_name": "FENGYUN 1C DEB",
        "meta_object_id": "1999-025QH",
        "meta_epoch": "2025-12-15T22:45:07.403904",
        "meta_mean_motion": 14.10825124,
        "meta_eccentricity": 0.01337599,
        "meta_inclination": 98.6984,
        "meta_ra_of_asc_node": 330.3677,
        "meta_arg_of_pericenter": 51.5482,
        "meta_mean_anomaly": 8.3541,
        "meta_ephemeris_type": 0,
        "meta_classification_type": "U",
        "meta_norad_cat_id": 30080,
        "meta_element_set_no": 999,
        "meta_rev_at_epoch": 97283,
        "meta_bstar": 0.00029953503,
        "meta_mean_motion_dot": 5.41e-06,
        "meta_mean_motion_ddot": 0,
        "tle_line1": "1 30080U 99025QH  25349.94800236  .00000541  00000+0  29954-3 0  9992",
        "tle_line2": "2 30080  98.6984 330.3677 0133759  51.5482   8.3541 14.10825124972837"
      },
      "geometry": {
        "type": "Point",
        "coordinates": [
          158.0022414523537,
          37.97757169947086
        ]
      }
    },
    {
      "type": "Feature",
      "properties": {
        "norad_id": 30081,
        "name": "FENGYUN 1C DEB",
        "group": "fengyun-1c-debris",
        "lat": 24.13026524716466,
        "lon": 170.94207694204894,
        "alt_km": 953.8181408445998,
        "timestamp": "2025-12-16T17:51:11.204971+00:00",
        "meta_object_name": "FENGYUN 1C DEB",
        "meta_object_id": "1999-025QJ",
        "meta_epoch": "2025-12-15T22:31:29.316864",
        "meta_mean_motion": 13.98283079,
        "meta_eccentricity": 0.00758465,
        "meta_inclination": 98.923,
        "meta_ra_of_asc_node": 346.1233,
        "meta_arg_of_pericenter": 330.4238,
        "meta_mean_anomaly": 93.3962,
        "meta_ephemeris_type": 0,
        "meta_classification_type": "U",
        "meta_norad_cat_id": 30081,
        "meta_element_set_no": 999,
        "meta_rev_at_epoch": 96399,
        "meta_bstar": 0.0005800184,
        "meta_mean_motion_dot": 8.05e-06,
        "meta_mean_motion_ddot": 0,
        "tle_line1": "1 30081U 99025QJ  25349.93853376  .00000805  00000+0  58002-3 0  9994",
        "tle_line2": "2 30081  98.9230 346.1233 0075846 330.4238  93.3962 13.98283079963998"
      },
      "geometry": {
        "type": "Point",
        "coordinates": [
          170.94207694204894,
          24.13026524716466
        ]
      }
    },
    {
      "type": "Feature",
      "properties": {
        "norad_id": 30082,
        "name": "FENGYUN 1C DEB",
        "group": "fengyun-1c-debris",
        "lat": -73.7181495621044,
        "lon": -48.769050186262675,
        "alt_km": 558.7325401474909,
        "timestamp": "2025-12-16T17:51:11.204981+00:00",
        "meta_object_name": "FENGYUN 1C DEB",
        "meta_object_id": "1999-025QK",
        "meta_epoch": "2025-12-15T21:35:25.455552",
        "meta_mean_motion": 15.15257649,
        "meta_eccentricity": 0.00698881,
        "meta_inclination": 98.8177,
        "meta_ra_of_asc_node": 278.147,
        "meta_arg_of_pericenter": 155.7308,
        "meta_mean_anomaly": 204.7239,
        "meta_ephemeris_type": 0,
        "meta_classification_type": "U",
        "meta_norad_cat_id": 30082,
        "meta_element_set_no": 999,
        "meta_rev_at_epoch": 1341,
        "meta_bstar": 0.00088485251,
        "meta_mean_motion_dot": 0.00017642,
        "meta_mean_motion_ddot": 0,
        "tle_line1": "1 30082U 99025QK  25349.89960018  .00017642  00000+0  88485-3 0  9997",
        "tle_line2": "2 30082  98.8177 278.1470 0069888 155.7308 204.7239 15.15257649 13413"
      },
      "geometry": {
        "type": "Point",
        "coordinates": [
          -48.769050186262675,
          -73.7181495621044
        ]
      }
    },
    {
      "type": "Feature",
      "properties": {
        "norad_id": 30086,
        "name": "FENGYUN 1C DEB",
        "group": "fengyun-1c-debris",
        "lat": 23.114018641391823,
        "lon": 20.507951583912043,
        "alt_km": 887.5567227641786,
        "timestamp": "2025-12-16T17:51:11.204992+00:00",
        "meta_object_name": "FENGYUN 1C DEB",
        "meta_object_id": "1999-025QP",
        "meta_epoch": "2025-12-15T20:20:38.654304",
        "meta_mean_motion": 14.03833675,
        "meta_eccentricity": 0.00618356,
        "meta_inclination": 98.9101,
        "meta_ra_of_asc_node": 23.4689,
        "meta_arg_of_pericenter": 126.0182,
        "meta_mean_anomaly": 51.4247,
        "meta_ephemeris_type": 0,
        "meta_classification_type": "U",
        "meta_norad_cat_id": 30086,
        "meta_element_set_no": 999,
        "meta_rev_at_epoch": 96739,
        "meta_bstar": 0.00057104586,
        "meta_mean_motion_dot": 8.72e-06,
        "meta_mean_motion_ddot": 0,
        "tle_line1": "1 30086U 99025QP  25349.84766961  .00000872  00000+0  57105-3 0  9999",
        "tle_line2": "2 30086  98.9101  23.4689 0061835 126.0182  51.4247 14.03833675967399"
      },
      "geometry": {
        "type": "Point",
        "coordinates": [
          20.507951583912043,
          23.114018641391823
        ]
      }
    },
    {
      "type": "Feature",
      "properties": {
        "norad_id": 30087,
        "name": "FENGYUN 1C DEB",
        "group": "fengyun-1c-debris",
        "lat": 25.652651234811692,
        "lon": 18.819691829644224,
        "alt_km": 749.1711352079228,
        "timestamp": "2025-12-16T17:51:11.205002+00:00",
        "meta_object_name": "FENGYUN 1C DEB",
        "meta_object_id": "1999-025QQ",
        "meta_epoch": "2025-12-15T20:47:57.976800",
        "meta_mean_motion": 14.35708389,
        "meta_eccentricity": 0.02304208,
        "meta_inclination": 98.3798,
        "meta_ra_of_asc_node": 22.0258,
        "meta_arg_of_pericenter": 112.0741,
        "meta_mean_anomaly": 65.1727,
        "meta_ephemeris_type": 0,
        "meta_classification_type": "U",
        "meta_norad_cat_id": 30087,
        "meta_element_set_no": 999,
        "meta_rev_at_epoch": 98740,
        "meta_bstar": 0.00023099432,
        "meta_mean_motion_dot": 8.54e-06,
        "meta_mean_motion_ddot": 0,
        "tle_line1": "1 30087U 99025QQ  25349.86664325  .00000854  00000+0  23099-3 0  9998",
        "tle_line2": "2 30087  98.3798  22.0258 0230420 112.0741  65.1727 14.35708389987404"
      },
      "geometry": {
        "type": "Point",
        "coordinates": [
          18.819691829644224,
          25.652651234811692
        ]
      }
    },
    {
      "type": "Feature",
      "properties": {
        "norad_id": 30088,
        "name": "FENGYUN 1C DEB",
        "group": "fengyun-1c-debris",
        "lat": -67.04956374436001,
        "lon": -4.791093420099939,
        "alt_km": 697.0722381444366,
        "timestamp": "2025-12-16T17:51:11.205012+00:00",
        "meta_object_name": "FENGYUN 1C DEB",
        "meta_object_id": "1999-025QR",
        "meta_epoch": "2025-12-15T22:21:52.920000",
        "meta_mean_motion": 14.35918625,
        "meta_eccentricity": 0.02007895,
        "meta_inclination": 98.3545,
        "meta_ra_of_asc_node": 334.1157,
        "meta_arg_of_pericenter": 237.8822,
        "meta_mean_anomaly": 176.5821,
        "meta_ephemeris_type": 0,
        "meta_classification_type": "U",
        "meta_norad_cat_id": 30088,
        "meta_element_set_no": 999,
        "meta_rev_at_epoch": 98718,
        "meta_bstar": 0.00032106195,
        "meta_mean_motion_dot": 1.121e-05,
        "meta_mean_motion_ddot": 0,
        "tle_line1": "1 30088U 99025QR  25349.93186250  .00001121  00000+0  32106-3 0  9990",
        "tle_line2": "2 30088  98.3545 334.1157 0200789 237.8822 176.5821 14.35918625987184"
      },
      "geometry": {
        "type": "Point",
        "coordinates": [
          -4.791093420099939,
          -67.04956374436001
        ]
      }
    },
    {
      "type": "Feature",
      "properties": {
        "norad_id": 30089,
        "name": "FENGYUN 1C DEB",
        "group": "fengyun-1c-debris",
        "lat": -60.28424411718883,
        "lon": 60.289686094381445,
        "alt_km": 759.2837660653104,
        "timestamp": "2025-12-16T17:51:11.205022+00:00",
        "meta_object_name": "FENGYUN 1C DEB",
        "meta_object_id": "1999-025QS",
        "meta_epoch": "2025-12-15T06:12:32.798880",
        "meta_mean_motion": 14.30308309,
        "meta_eccentricity": 0.00733851,
        "meta_inclination": 98.9032,
        "meta_ra_of_asc_node": 254.7112,
        "meta_arg_of_pericenter": 202.5685,
        "meta_mean_anomaly": 315.3647,
        "meta_ephemeris_type": 0,
        "meta_classification_type": "U",
        "meta_norad_cat_id": 30089,
        "meta_element_set_no": 999,
        "meta_rev_at_epoch": 98515,
        "meta_bstar": 0.00023700933,
        "meta_mean_motion_dot": 5.87e-06,
        "meta_mean_motion_ddot": 0,
        "tle_line1": "1 30089U 99025QS  25349.25871295  .00000587  00000+0  23701-3 0  9992",
        "tle_line2": "2 30089  98.9032 254.7112 0073385 202.5685 315.3647 14.30308309985157"
      },
      "geometry": {
        "type": "Point",
        "coordinates": [
          60.289686094381445,
          -60.28424411718883
        ]
      }
    }
  ]
}